{"type": "FeatureCollection", "features": [{"type": "Feature", "properties": {"mun": "BUENAVENTURA", "estacion": "Magüipi", "variable": "Precipitación (mm)", "obs": 417, "hist": 882, "indice": "47%", "fecha": "1–15 ago 2026", "fuente": "CVC"}, "geometry": {"type": "Point", "coordinates": [-77.0129, 3.8766]}}, {"type": "Feature", "properties": {"mun": "CALI", "estacion": "C. San Bosco", "variable": "Precipitación (mm)", "obs": 24, "hist": 53, "indice": "45%", "fecha": "1–15 ago 2026", "fuente": "CVC"}, "geometry": {"type": "Point", "coordinates": [-76.52448, 3.4184]}}, {"type": "Feature", "properties": {"mun": "RESTREPO", "estacion": "Restrepo", "variable": "Precipitación (mm)", "obs": 11, "hist": 35, "indice": "31%", "fecha": "1–15 ago 2026", "fuente": "CVC"}, "geometry": {"type": "Point", "coordinates": [-76.52085, 3.82301]}}, {"type": "Feature", "properties": {"mun": "YOTOCO", "estacion": "Bosque Yotoco", "variable": "Precipitación (mm)", "obs": 0, "hist": 66, "indice": "0%", "fecha": "1–15 ago 2026", "fuente": "CVC"}, "geometry": {"type": "Point", "coordinates": [-76.38306, 3.86061]}}, {"type": "Feature", "properties": {"mun": "DAGUA", "estacion": "La Rosita", "variable": "Precipitación (mm)", "obs": 0, "hist": 72, "indice": "0%", "fecha": "1–15 ago 2026", "fuente": "CVC"}, "geometry": {"type": "Point", "coordinates": [-76.68947, 3.65688]}}, {"type": "Feature", "properties": {"mun": "VIJES", "estacion": "Vijes", "variable": "Precipitación (mm)", "obs": 0, "hist": 37, "indice": "0%", "fecha": "1–15 ago 2026", "fuente": "CVC"}, "geometry": {"type": "Point", "coordinates": [-76.44189, 3.69918]}}, {"type": "Feature", "properties": {"mun": "CALI", "estacion": "Bocatoma Cali", "variable": "Caudal (m³/s)", "obs": 0.9, "hist": 1.8, "indice": "49%", "fecha": "1–15 ago 2026", "fuente": "CVC"}, "geometry": {"type": "Point", "coordinates": [-76.52448, 3.4184]}}, {"type": "Feature", "properties": {"mun": "RIOFRIO", "estacion": "Salónica", "variable": "Caudal (m³/s)", "obs": 5.2, "hist": 6.9, "indice": "76%", "fecha": "1–15 ago 2026", "fuente": "CVC"}, "geometry": {"type": "Point", "coordinates": [-76.28828, 4.15663]}}, {"type": "Feature", "properties": {"mun": "BUGALAGRANDE", "estacion": "El Placer", "variable": "Caudal (m³/s)", "obs": 8.7, "hist": 9.3, "indice": "93%", "fecha": "1–15 ago 2026", "fuente": "CVC"}, "geometry": {"type": "Point", "coordinates": [-76.15641, 4.20933]}}, {"type": "Feature", "properties": {"mun": "CARTAGO", "estacion": "La Vieja", "variable": "Caudal (m³/s)", "obs": 21.4, "hist": 46.4, "indice": "46%", "fecha": "1–15 ago 2026", "fuente": "CVC"}, "geometry": {"type": "Point", "coordinates": [-75.92284, 4.74844]}}, {"type": "Feature", "properties": {"mun": "DAGUA", "estacion": "Bendiciones", "variable": "Caudal (m³/s)", "obs": 13.3, "hist": 22.2, "indice": "60%", "fecha": "1–15 ago 2026", "fuente": "CVC"}, "geometry": {"type": "Point", "coordinates": [-76.68947, 3.65688]}}, {"type": "Feature", "properties": {"mun": "LA VICTORIA", "estacion": "Río Cauca", "variable": "Caudal (m³/s)", "obs": 99, "hist": 210, "indice": "47%", "fecha": "1–15 ago 2026", "fuente": "CVC"}, "geometry": {"type": "Point", "coordinates": [-76.03636, 4.52442]}}]}